NORAD_CAT_ID,OBJECT_NAME,OBJECT_TYPE,EPOCH,MEAN_MOTION,ECCENTRICITY,INCLINATION,RA_OF_ASC_NODE,ARG_OF_PERICENTER,MEAN_ANOMALY,BSTAR,MEAN_MOTION_DOT,MEAN_MOTION_DDOT,TLE_LINE0,TLE_LINE1,TLE_LINE2,SEMIMAJOR_AXIS,PERIOD,APOGEE,PERIGEE,DECAYED
53273.0,STARLINK-4051,PAYLOAD,2022-08-29 14:00:01,15.73177871,0.0002448,53.2172,224.9238,19.6736,123.4933,-0.00030745,-0.00043513,0.0,0 STARLINK-4051,1 53273U 22086AH  22241.58334491 -.00043513  00000-0 -30745-3 0  9996,2 53273  53.2172 224.9238 0002448  19.6736 123.4933 15.73177871  1308,6727.958000000001,91.534,351.47,348.176,0.0
53273.0,STARLINK-4051,PAYLOAD,2022-08-29 22:00:00,15.7315096,0.0002249,53.2174,223.2731,22.7648,209.2864,0.00048333,0.00067621,0.0,0 STARLINK-4051,1 53273U 22086AH  22241.91667824  .00067621  00000-0  48333-3 0  9998,2 53273  53.2174 223.2731 0002249  22.7648 209.2864 15.73150960  1302,6728.035,91.536,351.413,348.38699999999994,0.0
53273.0,STARLINK-4051,PAYLOAD,2022-08-30 06:00:00,15.73180975,0.0002519,53.2171,221.6258,22.5778,298.3635,0.0001595,0.00021805,0.0,0 STARLINK-4051,1 53273U 22086AH  22242.25001157  .00021805  00000-0  15950-3 0  9990,2 53273  53.2171 221.6258 0002519  22.5778 298.3635 15.73180975  6407,6727.949000000001,91.534,351.509,348.12,0.0
53273.0,STARLINK-4051,PAYLOAD,2022-08-30 14:00:01,15.7324245,0.0002408,53.2167,219.9757,21.0898,28.7674,-0.00021261,-0.00030411,0.0,0 STARLINK-4051,1 53273U 22086AH  22242.58334491 -.00030411  00000-0 -21261-3 0  9993,2 53273  53.2167 219.9757 0002408  21.0898  28.7674 15.73242450  1309,6727.774,91.531,351.259,348.019,0.0
53273.0,STARLINK-4051,PAYLOAD,2022-08-30 22:00:00,15.73196117,0.000214,53.2172,218.3249,21.9566,116.869,0.00014798,0.00020195,0.0,0 STARLINK-4051,1 53273U 22086AH  22242.91667824  .00020195  00000-0  14798-3 0  9992,2 53273  53.2172 218.3249 0002140  21.9566 116.8690 15.73196117  1303,6727.906,91.533,351.211,348.331,0.0
53273.0,STARLINK-4051,PAYLOAD,2022-08-31 12:00:00,15.73256423,0.0002444,53.2172,215.4402,20.4481,184.0154,-0.00064387,-0.00090254,0.0,0 STARLINK-4051,1 53273U 22086AH  22243.50001157 -.00090254  00000-0 -64387-3 0  9993,2 53273  53.2172 215.4402 0002444  20.4481 184.0154 15.73256423  6606,6727.734,91.53,351.244,347.955,0.0
53273.0,STARLINK-4051,PAYLOAD,2022-08-31 14:00:01,15.73232809,0.000239,53.2174,215.0272,22.0824,294.6229,-0.00058828,-0.00082506,0.0,0 STARLINK-4051,1 53273U 22086AH  22243.58334491 -.00082506  00000-0 -58828-3 0  9995,2 53273  53.2174 215.0272 0002390  22.0824 294.6229 15.73232809  1303,6727.802,91.531,351.275,348.059,0.0
53273.0,STARLINK-4051,PAYLOAD,2022-08-31 22:00:00,15.73209281,0.0002283,53.2175,213.3767,26.4208,19.2129,-0.00015461,-0.00022274,0.0,0 STARLINK-4051,1 53273U 22086AH  22243.91667824 -.00022274  00000-0 -15461-3 0  9993,2 53273  53.2175 213.3767 0002283  26.4208  19.2129 15.73209281  1307,6727.869000000002,91.533,351.27,348.1980000000001,0.0
53273.0,STARLINK-4051,PAYLOAD,2022-09-01 04:00:01,15.73190554,0.0002409,53.2171,212.1413,23.181,359.2229,-0.00034579,-0.00048857,0.0,0 STARLINK-4051,1 53273U 22086AH  22244.16668981 -.00048857  00000-0 -34579-3 0  9992,2 53273  53.2171 212.1413 0002409  23.1810 359.2229 15.73190554  6711,6727.922,91.534,351.408,348.166,0.0
53273.0,STARLINK-4051,PAYLOAD,2022-09-01 14:00:01,15.73203087,0.0002319,53.2166,210.079,22.5654,200.9648,-1.2759e-05,-2.412e-05,0.0,0 STARLINK-4051,1 53273U 22086AH  22244.58335648 -.00002412  00000-0 -12759-4 0  9993,2 53273  53.2166 210.0790 0002319  22.5654 200.9648 15.73203087  6778,6727.886,91.533,351.31199999999984,348.191,0.0
53273.0,STARLINK-4051,PAYLOAD,2022-09-01 22:00:00,15.73213603,0.0002143,53.2169,208.4287,25.9504,286.4414,0.0003939,0.00055059,0.0,0 STARLINK-4051,1 53273U 22086AH  22244.91667824  .00055059  00000-0  39390-3 0  9996,2 53273  53.2169 208.4287 0002143  25.9504 286.4414 15.73213603  1308,6727.856,91.532,351.163,348.28,0.0
53273.0,STARLINK-4051,PAYLOAD,2022-09-02 06:00:00,15.73258667,0.0002387,53.2171,206.7814,22.443,18.9059,-0.00042097,-0.00059443,0.0,0 STARLINK-4051,1 53273U 22086AH  22245.25001157 -.00059443  00000-0 -42097-3 0  9996,2 53273  53.2171 206.7814 0002387  22.4430  18.9059 15.73258667  6888,6727.728,91.53,351.199,347.987,0.0
53273.0,STARLINK-4051,PAYLOAD,2022-09-02 14:00:01,15.73223606,0.0002309,53.217,205.1306,22.1129,108.2147,-0.00072154,-0.00100797,0.0,0 STARLINK-4051,1 53273U 22086AH  22245.58334491 -.00100797  00000-0 -72154-3 0  9998,2 53273  53.2170 205.1306 0002309  22.1129 108.2147 15.73223606  1300,6727.828,91.532,351.246,348.139,0.0
53273.0,STARLINK-4051,PAYLOAD,2022-09-02 22:00:01,15.73169957,0.0002231999999999,53.217,203.4805,29.3528,189.9477,0.00027184,0.00037655,0.0,0 STARLINK-4051,1 53273U 22086AH  22245.91668981  .00037655  00000-0  27184-3 0  9992,2 53273  53.2170 203.4805 0002232  29.3528 189.9477 15.73169957  1302,6727.981,91.535,351.348,348.344,0.0
53273.0,STARLINK-4051,PAYLOAD,2022-09-03 06:00:00,15.73180301,0.0002508999999999,53.2165,201.8332,27.9003,280.2525,0.00040602,0.00056704,0.0,0 STARLINK-4051,1 53273U 22086AH  22246.25001157  .00056704  00000-0  40602-3 0  9992,2 53273  53.2165 201.8332 0002509  27.9003 280.2525 15.73180301  7033,6727.951,91.534,351.504,348.12800000000016,0.0
53273.0,STARLINK-4051,PAYLOAD,2022-09-03 14:00:01,15.73243807,0.0002259,53.2161,200.1822,28.1375,8.9543,8.2167e-05,0.00010947,0.0,0 STARLINK-4051,1 53273U 22086AH  22246.58334491  .00010947  00000-0  82167-4 0  9990,2 53273  53.2161 200.1822 0002259  28.1375   8.9543 15.73243807  1302,6727.77,91.531,351.155,348.115,0.0
53273.0,STARLINK-4051,PAYLOAD,2022-09-03 22:00:00,15.73269716,0.0002066999999999,53.2163,198.5322,28.4497,97.6348,-0.00022038,-0.0003153,0.0,0 STARLINK-4051,1 53273U 22086AH  22246.91667824 -.00031530  00000-0 -22038-3 0  9999,2 53273  53.2163 198.5322 0002067  28.4497  97.6348 15.73269716  1309,6727.696,91.529,350.952,348.171,0.0
53273.0,STARLINK-4051,PAYLOAD,2022-09-04 06:00:00,15.73255307,0.0002255999999999,53.2164,196.8846,21.9969,193.0842,-0.00020509,-0.00029376,0.0,0 STARLINK-4051,1 53273U 22086AH  22247.25001157 -.00029376  00000-0 -20509-3 0  9994,2 53273  53.2164 196.8846 0002256  21.9969 193.0842 15.73255307  7198,6727.736999999999,91.53,351.12,348.085,0.0
53273.0,STARLINK-4051,PAYLOAD,2022-09-04 14:00:01,15.7324501,0.0002056999999999,53.2164,195.2333,21.8877,282.2604,-0.00045913,-0.00064693,0.0,0 STARLINK-4051,1 53273U 22086AH  22247.58335648 -.00064693  00000-0 -45913-3 0  9992,2 53273  53.2164 195.2333 0002057  21.8877 282.2604 15.73245010  1302,6727.767,91.531,351.016,348.24800000000016,0.0
53273.0,STARLINK-4051,PAYLOAD,2022-09-04 20:00:01,15.73212354,0.0001975,53.2164,193.9955,25.536,255.2705,-0.00010758,-0.000157,0.0,0 STARLINK-4051,1 53273U 22086AH  22247.83334491 -.00015700  00000-0 -10758-3 0  9999,2 53273  53.2164 193.9955 0001975  25.5360 255.2705 15.73212354  1300,6727.86,91.532,351.05400000000014,348.396,0.0
53273.0,STARLINK-4051,PAYLOAD,2022-09-05 04:00:00,15.7323245,0.0002218999999999,53.216,192.348,22.6384,347.1233,-0.0001296999999999,-0.00018811,0.0,0 STARLINK-4051,1 53273U 22086AH  22248.16667824 -.00018811  00000-0 -12970-3 0  9999,2 53273  53.2160 192.3480 0002219  22.6384 347.1233 15.73232450  7333,6727.803000000001,91.531,351.161,348.175,0.0
53273.0,STARLINK-4051,PAYLOAD,2022-09-05 14:00:01,15.73233711,0.0002008,53.2157,190.2846,25.6164,185.3528,-0.00062785,-0.00087955,0.0,0 STARLINK-4051,1 53273U 22086AH  22248.58334491 -.00087955  00000-0 -62785-3 0  9990,2 53273  53.2157 190.2846 0002008  25.6164 185.3528 15.73233711  1308,6727.799,91.531,351.015,348.31300000000016,0.0
53273.0,STARLINK-4051,PAYLOAD,2022-09-05 20:00:01,15.731685,0.0001875,53.2159,189.047,27.9908,159.6516,-0.00044143,-0.00062038,0.0,0 STARLINK-4051,1 53273U 22086AH  22248.83334491 -.00062038  00000-0 -44143-3 0  9991,2 53273  53.2159 189.0470 0001875  27.9908 159.6516 15.73168500  7446,6727.985,91.535,351.111,348.588,0.0
53273.0,STARLINK-4051,PAYLOAD,2022-09-05 22:00:00,15.73164643,0.0001909,53.216,188.6352,27.2388,272.6225,-0.00054353,-0.00076106,0.0,0 STARLINK-4051,1 53273U 22086AH  22248.91667824 -.00076106  00000-0 -54353-3 0  9994,2 53273  53.2160 188.6352 0001909  27.2388 272.6225 15.73164643  1301,6727.996,91.535,351.145,348.577,0.0
53273.0,STARLINK-4051,PAYLOAD,2022-09-06 12:00:00,15.73142559,0.0002006999999999,53.2163,185.7494,24.555,340.773,-0.00011532,-0.00016734,0.0,0 STARLINK-4051,1 53273U 22086AH  22249.50001157 -.00016734  00000-0 -11532-3 0  9994,2 53273  53.2163 185.7494 0002007  24.5550 340.7730 15.73142559  7542,6728.059,91.537,351.274,348.574,0.0
53273.0,STARLINK-4051,PAYLOAD,2022-09-06 14:00:01,15.73085613,0.0001947,53.2165,185.3366,24.2931,93.2599,0.00070621,0.00099184,0.0,0 STARLINK-4051,1 53273U 22086AH  22249.58334491  .00099184  00000-0  70621-3 0  9994,2 53273  53.2165 185.3366 0001947  24.2931  93.2599 15.73085613  1308,6728.221,91.54,351.396,348.776,0.0
53273.0,STARLINK-4051,PAYLOAD,2022-09-06 20:00:01,15.73157187,0.0001921999999999,53.2166,184.0992,29.3792,64.7776,0.00071484,0.00100731,0.0,0 STARLINK-4051,1 53273U 22086AH  22249.83334491  .00100731  00000-0  71484-3 0  9991,2 53273  53.2166 184.0992 0001922  29.3792  64.7776 15.73157187  7609,6728.017,91.536,351.175,348.589,0.0
53273.0,STARLINK-4051,PAYLOAD,2022-09-06 22:00:00,15.7319854,0.0001916999999999,53.2166,183.6874,25.9371,180.4269,0.00017424,0.00023902,0.0,0 STARLINK-4051,1 53273U 22086AH  22249.91667824  .00023902  00000-0  17424-3 0  9997,2 53273  53.2166 183.6874 0001917  25.9371 180.4269 15.73198540  1304,6727.899,91.533,351.05400000000014,348.475,0.0
53273.0,STARLINK-4051,PAYLOAD,2022-09-07 04:00:00,15.73209423,0.0002110999999999,53.2164,182.4518,21.735,161.3317,-0.00019133,-0.00027399,0.0,0 STARLINK-4051,1 53273U 22086AH  22250.16667824 -.00027399  00000-0 -19133-3 0  9991,2 53273  53.2164 182.4518 0002111  21.7350 161.3317 15.73209423  7651,6727.868,91.533,351.154,348.31300000000016,0.0
